[{"OBJECT_NAME":"WEILAI 1R","OBJECT_ID":"2019-093F","EPOCH":"2026-03-09T22:33:48.244608","MEAN_MOTION":14.997592,"ECCENTRICITY":0.00116762,"INCLINATION":97.7939,"RA_OF_ASC_NODE":158.7373,"ARG_OF_PERICENTER":23.5076,"MEAN_ANOMALY":336.6679,"EPHEMERIS_TYPE":0,"CLASSIFICATION_TYPE":"U","NORAD_CAT_ID":44884,"ELEMENT_SET_NO":999,"REV_AT_EPOCH":33754,"BSTAR":0.00050142794,"MEAN_MOTION_DOT":6.146e-5,"MEAN_MOTION_DDOT":0},{"OBJECT_NAME":"STARLINK-5871","OBJECT_ID":"2023-037F","EPOCH":"2026-03-09T22:35:58.157376","MEAN_MOTION":14.98331696,"ECCENTRICITY":0.00028939,"INCLINATION":69.9994,"RA_OF_ASC_NODE":303.8717,"ARG_OF_PERICENTER":270.6396,"MEAN_ANOMALY":89.4432,"EPHEMERIS_TYPE":0,"CLASSIFICATION_TYPE":"U","NORAD_CAT_ID":55919,"ELEMENT_SET_NO":999,"REV_AT_EPOCH":16352,"BSTAR":-9.299257e-6,"MEAN_MOTION_DOT":-2.04e-6,"MEAN_MOTION_DDOT":0}]
